start=new Date('2021-12-11T00:00:00.000Z').valueOf();
sats=[{"MEAN_MOTION":"15.41397770","OBJECT_NAME":"STARLINK-1322","RCS_SIZE":"LARGE","MEAN_MOTION_DDOT":"0.0000000000000","APOAPSIS":"442.847","CLASSIFICATION_TYPE":"U","EPHEMERIS_TYPE":"0","SITE":"AFETR","RA_OF_ASC_NODE":"189.1134","OBJECT_TYPE":"PAYLOAD","TLE_LINE2":"2 45552  53.0554 189.1134 0001264 120.2415 239.8714 15.41397770 91985","LAUNCH_DATE":"2020-04-22","ELEMENT_SET_NO":"999","SEMIMAJOR_AXIS":"6820.120","NORAD_CAT_ID":"45552","ECCENTRICITY":"0.00012640","FILE":"3237005","EPOCH":"2021-12-10T21:32:02.792256","ARG_OF_PERICENTER":"120.2415","PERIAPSIS":"441.123","REV_AT_EPOCH":"9198","TIME_SYSTEM":"UTC","BSTAR":"0.00012905000000","MEAN_ANOMALY":"239.8714","DECAY_DATE":null,"MEAN_MOTION_DOT":"0.00005071","MEAN_ELEMENT_THEORY":"SGP4","TLE_LINE1":"1 45552U 20025X   21344.89725454  .00005071  00000-0  12905-3 0  9991","PERIOD":"93.422","REF_FRAME":"TEME","OBJECT_ID":"2020-025X","CENTER_NAME":"EARTH","COUNTRY_CODE":"US","GP_ID":"191457140","INCLINATION":"53.0554"},{"BSTAR":"-0.00003552500000","REV_AT_EPOCH":"9049","TIME_SYSTEM":"UTC","MEAN_ANOMALY":"283.0639","PERIAPSIS":"545.822","COUNTRY_CODE":"US","CENTER_NAME":"EARTH","OBJECT_ID":"2020-025Y","PERIOD":"95.593","REF_FRAME":"TEME","INCLINATION":"53.0543","GP_ID":"191455888","DECAY_DATE":null,"TLE_LINE1":"1 45553U 20025Y   21344.91677328 -.00000811  00000-0 -35525-4 0  9994","MEAN_ELEMENT_THEORY":"SGP4","MEAN_MOTION_DOT":"-0.00000811","SITE":"AFETR","EPHEMERIS_TYPE":"0","CLASSIFICATION_TYPE":"U","OBJECT_NAME":"STARLINK-1323","MEAN_MOTION":"15.06389415","APOAPSIS":"548.670","MEAN_MOTION_DDOT":"0.0000000000000","RCS_SIZE":"LARGE","ECCENTRICITY":"0.00020560","NORAD_CAT_ID":"45553","ARG_OF_PERICENTER":"77.0579","EPOCH":"2021-12-10T22:00:09.211392","FILE":"3237005","LAUNCH_DATE":"2020-04-22","TLE_LINE2":"2 45553  53.0543 203.8304 0002056  77.0579 283.0639 15.06389415 90497","OBJECT_TYPE":"PAYLOAD","RA_OF_ASC_NODE":"203.8304","SEMIMAJOR_AXIS":"6925.381","ELEMENT_SET_NO":"999"},{"PERIAPSIS":"545.651","MEAN_ANOMALY":"279.8499","BSTAR":"0.00005335200000","REV_AT_EPOCH":"9178","TIME_SYSTEM":"UTC","TLE_LINE1":"1 45554U 20025Z   21344.90939557  .00000513  00000-0  53352-4 0  9994","MEAN_ELEMENT_THEORY":"SGP4","MEAN_MOTION_DOT":"0.00000513","DECAY_DATE":null,"INCLINATION":"53.0526","GP_ID":"191456639","COUNTRY_CODE":"US","CENTER_NAME":"EARTH","OBJECT_ID":"2020-025Z","REF_FRAME":"TEME","PERIOD":"95.592","APOAPSIS":"548.751","MEAN_MOTION_DDOT":"0.0000000000000","RCS_SIZE":"LARGE","OBJECT_NAME":"STARLINK-1325","MEAN_MOTION":"15.06403980","SITE":"AFETR","EPHEMERIS_TYPE":"0","CLASSIFICATION_TYPE":"U","SEMIMAJOR_AXIS":"6925.336","ELEMENT_SET_NO":"999","TLE_LINE2":"2 45554  53.0526 203.8598 0002238  80.2742 279.8499 15.06403980 91788","OBJECT_TYPE":"PAYLOAD","LAUNCH_DATE":"2020-04-22","RA_OF_ASC_NODE":"203.8598","ARG_OF_PERICENTER":"80.2742","EPOCH":"2021-12-10T21:49:31.777248","FILE":"3237005","ECCENTRICITY":"0.00022380","NORAD_CAT_ID":"45554"},{"OBJECT_NAME":"STARLINK-1327","MEAN_MOTION":"15.06403000","APOAPSIS":"548.974","MEAN_MOTION_DDOT":"0.0000000000000","RCS_SIZE":"LARGE","EPHEMERIS_TYPE":"0","SITE":"AFETR","CLASSIFICATION_TYPE":"U","TLE_LINE2":"2 45555  53.0527 204.0248 0002556  77.6437 282.4838 15.06403000 91778","OBJECT_TYPE":"PAYLOAD","LAUNCH_DATE":"2020-04-22","RA_OF_ASC_NODE":"204.0248","SEMIMAJOR_AXIS":"6925.339","ELEMENT_SET_NO":"999","ECCENTRICITY":"0.00025560","NORAD_CAT_ID":"45555","ARG_OF_PERICENTER":"77.6437","EPOCH":"2021-12-10T20:56:25.808352","FILE":"3237005","PERIAPSIS":"545.434","BSTAR":"0.00007157400000","TIME_SYSTEM":"UTC","REV_AT_EPOCH":"9177","MEAN_ANOMALY":"282.4838","DECAY_DATE":null,"TLE_LINE1":"1 45555U 20025AA  21344.87252093  .00000784  00000-0  71574-4 0  9990","MEAN_ELEMENT_THEORY":"SGP4","MEAN_MOTION_DOT":"0.00000784","COUNTRY_CODE":"US","CENTER_NAME":"EARTH","OBJECT_ID":"2020-025AA","PERIOD":"95.592","REF_FRAME":"TEME","GP_ID":"191456890","INCLINATION":"53.0527"},{"RA_OF_ASC_NODE":"203.8464","LAUNCH_DATE":"2020-04-22","TLE_LINE2":"2 45556  53.0538 203.8464 0002329  75.4312 284.6935 15.06398448 91786","OBJECT_TYPE":"PAYLOAD","ELEMENT_SET_NO":"999","SEMIMAJOR_AXIS":"6925.353","NORAD_CAT_ID":"45556","ECCENTRICITY":"0.00023290","FILE":"3237005","EPOCH":"2021-12-10T21:54:50.536224","ARG_OF_PERICENTER":"75.4312","MEAN_MOTION":"15.06398448","OBJECT_NAME":"STARLINK-1334","RCS_SIZE":"LARGE","MEAN_MOTION_DDOT":"0.0000000000000","APOAPSIS":"548.831","CLASSIFICATION_TYPE":"U","SITE":"AFETR","EPHEMERIS_TYPE":"0","DECAY_DATE":null,"MEAN_MOTION_DOT":"0.00000593","MEAN_ELEMENT_THEORY":"SGP4","TLE_LINE1":"1 45556U 20025AB  21344.91308491  .00000593  00000-0  58761-4 0  9991","PERIOD":"95.592","REF_FRAME":"TEME","CENTER_NAME":"EARTH","OBJECT_ID":"2020-025AB","COUNTRY_CODE":"US","GP_ID":"191457641","INCLINATION":"53.0538","PERIAPSIS":"545.605","TIME_SYSTEM":"UTC","REV_AT_EPOCH":"9178","BSTAR":"0.00005876100000","MEAN_ANOMALY":"284.6935"},{"ECCENTRICITY":"0.00022270","NORAD_CAT_ID":"45557","ARG_OF_PERICENTER":"75.8773","EPOCH":"2021-12-10T17:18:50.076288","FILE":"3237005","OBJECT_TYPE":"PAYLOAD","TLE_LINE2":"2 45557  53.0524 204.7008 0002227  75.8773 284.2464 15.06390857 91754","LAUNCH_DATE":"2020-04-22","RA_OF_ASC_NODE":"204.7008","SEMIMAJOR_AXIS":"6925.377","ELEMENT_SET_NO":"999","SITE":"AFETR","EPHEMERIS_TYPE":"0","CLASSIFICATION_TYPE":"U","OBJECT_NAME":"STARLINK-1336","MEAN_MOTION":"15.06390857","APOAPSIS":"548.784","MEAN_MOTION_DDOT":"0.0000000000000","RCS_SIZE":"LARGE","COUNTRY_CODE":"US","CENTER_NAME":"EARTH","OBJECT_ID":"2020-025AC","PERIOD":"95.593","REF_FRAME":"TEME","INCLINATION":"53.0524","GP_ID":"191456389","DECAY_DATE":null,"TLE_LINE1":"1 45557U 20025AC  21344.72141292  .00000443  00000-0  48674-4 0  9991","MEAN_ELEMENT_THEORY":"SGP4","MEAN_MOTION_DOT":"0.00000443","BSTAR":"0.00004867400000","REV_AT_EPOCH":"9175","TIME_SYSTEM":"UTC","MEAN_ANOMALY":"284.2464","PERIAPSIS":"545.699"},{"BSTAR":"0.00006290600000","REV_AT_EPOCH":"9177","TIME_SYSTEM":"UTC","MEAN_ANOMALY":"282.8398","PERIAPSIS":"545.527","CENTER_NAME":"EARTH","OBJECT_ID":"2020-025AD","COUNTRY_CODE":"US","PERIOD":"95.592","REF_FRAME":"TEME","GP_ID":"191456139","INCLINATION":"53.0540","DECAY_DATE":null,"MEAN_ELEMENT_THEORY":"SGP4","TLE_LINE1":"1 45558U 20025AD  21344.88726871  .00000655  00000-0  62906-4 0  9990","MEAN_MOTION_DOT":"0.00000655","SITE":"AFETR","EPHEMERIS_TYPE":"0","CLASSIFICATION_TYPE":"U","OBJECT_NAME":"STARLINK-1342","MEAN_MOTION":"15.06402046","APOAPSIS":"548.888","RCS_SIZE":"LARGE","MEAN_MOTION_DDOT":"0.0000000000000","NORAD_CAT_ID":"45558","ECCENTRICITY":"0.00024270","ARG_OF_PERICENTER":"77.2862","FILE":"3237005","EPOCH":"2021-12-10T21:17:40.016544","RA_OF_ASC_NODE":"203.9595","OBJECT_TYPE":"PAYLOAD","TLE_LINE2":"2 45558  53.0540 203.9595 0002427  77.2862 282.8398 15.06402046 91778","LAUNCH_DATE":"2020-04-22","SEMIMAJOR_AXIS":"6925.342","ELEMENT_SET_NO":"999"},{"EPHEMERIS_TYPE":"0","SITE":"AFETR","CLASSIFICATION_TYPE":"U","APOAPSIS":"548.790","MEAN_MOTION_DDOT":"0.0000000000000","RCS_SIZE":"LARGE","OBJECT_NAME":"STARLINK-1344","MEAN_MOTION":"15.06392141","ARG_OF_PERICENTER":"76.1303","EPOCH":"2021-12-10T20:35:13.543296","FILE":"3237005","ECCENTRICITY":"0.00022410","NORAD_CAT_ID":"45559","SEMIMAJOR_AXIS":"6925.373","ELEMENT_SET_NO":"999","TLE_LINE2":"2 45559  53.0530 204.0828 0002241  76.1303 283.9935 15.06392141 91774","LAUNCH_DATE":"2020-04-22","OBJECT_TYPE":"PAYLOAD","RA_OF_ASC_NODE":"204.0828","MEAN_ANOMALY":"283.9935","BSTAR":"-0.00007678300000","REV_AT_EPOCH":"9177","TIME_SYSTEM":"UTC","PERIAPSIS":"545.686","INCLINATION":"53.0530","GP_ID":"191457391","COUNTRY_CODE":"US","CENTER_NAME":"EARTH","OBJECT_ID":"2020-025AE","PERIOD":"95.593","REF_FRAME":"TEME","TLE_LINE1":"1 45559U 20025AE  21344.85779564 -.00001425  00000-0 -76783-4 0  9991","MEAN_ELEMENT_THEORY":"SGP4","MEAN_MOTION_DOT":"-0.00001425","DECAY_DATE":null},{"APOAPSIS":"548.870","MEAN_MOTION_DDOT":"0.0000000000000","RCS_SIZE":"LARGE","OBJECT_NAME":"STARLINK-1346","MEAN_MOTION":"15.06391033","EPHEMERIS_TYPE":"0","SITE":"AFETR","CLASSIFICATION_TYPE":"U","SEMIMAJOR_AXIS":"6925.376","ELEMENT_SET_NO":"999","TLE_LINE2":"2 45560  53.0538 194.1534 0002352  78.3264 281.7989 15.06391033 91910","OBJECT_TYPE":"PAYLOAD","LAUNCH_DATE":"2020-04-22","RA_OF_ASC_NODE":"194.1534","ARG_OF_PERICENTER":"78.3264","EPOCH":"2021-12-10T20:15:18.937152","FILE":"3237005","ECCENTRICITY":"0.00023520","NORAD_CAT_ID":"45560","PERIAPSIS":"545.612","MEAN_ANOMALY":"281.7989","BSTAR":"-0.00006074700000","REV_AT_EPOCH":"9191","TIME_SYSTEM":"UTC","TLE_LINE1":"1 45560U 20025AF  21344.84396918 -.00001186  00000-0 -60747-4 0  9997","MEAN_ELEMENT_THEORY":"SGP4","MEAN_MOTION_DOT":"-0.00001186","DECAY_DATE":null,"INCLINATION":"53.0538","GP_ID":"191457141","COUNTRY_CODE":"US","OBJECT_ID":"2020-025AF","CENTER_NAME":"EARTH","REF_FRAME":"TEME","PERIOD":"95.593"},{"PERIAPSIS":"541.093","BSTAR":"0.00021229000000","REV_AT_EPOCH":"9298","TIME_SYSTEM":"UTC","MEAN_ANOMALY":"266.2153","DECAY_DATE":null,"TLE_LINE1":"1 45561U 20025AG  21344.90160868  .00003010  00000-0  21229-3 0  9995","MEAN_ELEMENT_THEORY":"SGP4","MEAN_MOTION_DOT":"0.00003010","COUNTRY_CODE":"US","CENTER_NAME":"EARTH","OBJECT_ID":"2020-025AG","REF_FRAME":"TEME","PERIOD":"95.496","GP_ID":"191455889","INCLINATION":"53.0580","OBJECT_NAME":"STARLINK-1348","MEAN_MOTION":"15.07908937","APOAPSIS":"544.092","MEAN_MOTION_DDOT":"0.0000000000000","RCS_SIZE":"LARGE","EPHEMERIS_TYPE":"0","SITE":"AFETR","CLASSIFICATION_TYPE":"U","TLE_LINE2":"2 45561  53.0580 118.2022 0002167  93.9084 266.2153 15.07908937 92981","LAUNCH_DATE":"2020-04-22","OBJECT_TYPE":"PAYLOAD","RA_OF_ASC_NODE":"118.2022","SEMIMAJOR_AXIS":"6920.728","ELEMENT_SET_NO":"999","ECCENTRICITY":"0.00021670","NORAD_CAT_ID":"45561","ARG_OF_PERICENTER":"93.9084","EPOCH":"2021-12-10T21:38:18.989952","FILE":"3237005"}];
